[
    {
        "Altitude(m)": 706993.250457693,
        "Argument of Periapsis(deg)": 0.004556048474650827,
        "Eccentricity": 0.0,
        "Inclination(deg)": 45.0,
        "Latitude(deg)": 43.74466335315779,
        "Longitude(deg)": 132.53914085100237,
        "Mean Anomaly(deg)": 102.79508665899232,
        "RAAN(deg)": 124.99569922341671,
        "Satellite Name": "Constellation 1 556",
        "Satellite Number": 556,
        "Semi-Major Axis(m)": 7083131.272910544,
        "Time(s)": 76
    },
    {
        "Altitude(m)": 706990.2994270708,
        "Argument of Periapsis(deg)": 0.004615996480896233,
        "Eccentricity": 0.0,
        "Inclination(deg)": 45.0,
        "Latitude(deg)": 43.731461141486086,
        "Longitude(deg)": 132.61687613902015,
        "Mean Anomaly(deg)": 102.85578779924222,
        "RAAN(deg)": 124.99564263425115,
        "Satellite Name": "Constellation 1 556",
        "Satellite Number": 556,
        "Semi-Major Axis(m)": 7083131.272910544,
        "Time(s)": 77
    },
    {
        "Altitude(m)": 706987.3356386066,
        "Argument of Periapsis(deg)": 0.004675944487141638,
        "Eccentricity": 0.0,
        "Inclination(deg)": 45.0,
        "Latitude(deg)": 43.71820034477351,
        "Longitude(deg)": 132.69457542380266,
        "Mean Anomaly(deg)": 102.9164889394921,
        "RAAN(deg)": 124.9955860450856,
        "Satellite Name": "Constellation 1 556",
        "Satellite Number": 556,
        "Semi-Major Axis(m)": 7083131.272910544,
        "Time(s)": 78
    },
    {
        "Altitude(m)": 706984.3591098109,
        "Argument of Periapsis(deg)": 0.004735892493387044,
        "Eccentricity": 0.0,
        "Inclination(deg)": 45.0,
        "Latitude(deg)": 43.704881015455136,
        "Longitude(deg)": 132.77223857875518,
        "Mean Anomaly(deg)": 102.97719007974202,
        "RAAN(deg)": 124.99552945592,
        "Satellite Name": "Constellation 1 556",
        "Satellite Number": 556,
        "Semi-Major Axis(m)": 7083131.272910544,
        "Time(s)": 79
    },
    {
        "Altitude(m)": 706981.3698582746,
        "Argument of Periapsis(deg)": 0.004795840499632449,
        "Eccentricity": 0.0,
        "Inclination(deg)": 45.0,
        "Latitude(deg)": 43.691503206138535,
        "Longitude(deg)": 132.84986547782205,
        "Mean Anomaly(deg)": 103.0378912199919,
        "RAAN(deg)": 124.99547286675445,
        "Satellite Name": "Constellation 1 556",
        "Satellite Number": 556,
        "Semi-Major Axis(m)": 7083131.272910544,
        "Time(s)": 80
    },
    {
        "Altitude(m)": 706978.3679016675,
        "Argument of Periapsis(deg)": 0.004855788505877855,
        "Eccentricity": 0.0,
        "Inclination(deg)": 45.0,
        "Latitude(deg)": 43.678066969602796,
        "Longitude(deg)": 132.92745599548786,
        "Mean Anomaly(deg)": 103.09859236024181,
        "RAAN(deg)": 124.99541627758889,
        "Satellite Name": "Constellation 1 556",
        "Satellite Number": 556,
        "Semi-Major Axis(m)": 7083131.272910544,
        "Time(s)": 81
    },
    {
        "Altitude(m)": 706975.3532577333,
        "Argument of Periapsis(deg)": 0.00491573651212326,
        "Eccentricity": 0.0,
        "Inclination(deg)": 45.0,
        "Latitude(deg)": 43.66457235879789,
        "Longitude(deg)": 133.005009838681,
        "Mean Anomaly(deg)": 103.15929350049173,
        "RAAN(deg)": 124.9953596884233,
        "Satellite Name": "Constellation 1 556",
        "Satellite Number": 556,
        "Semi-Major Axis(m)": 7083131.272910544,
        "Time(s)": 82
    },
    {
        "Altitude(m)": 706972.3259442915,
        "Argument of Periapsis(deg)": 0.004975684518368666,
        "Eccentricity": 0.0,
        "Inclination(deg)": 45.0,
        "Latitude(deg)": 43.651019426843,
        "Longitude(deg)": 133.08252721916367,
        "Mean Anomaly(deg)": 103.21999464074162,
        "RAAN(deg)": 124.99530309925775,
        "Satellite Name": "Constellation 1 556",
        "Satellite Number": 556,
        "Semi-Major Axis(m)": 7083131.272910544,
        "Time(s)": 83
    },
    {
        "Altitude(m)": 706969.2859792403,
        "Argument of Periapsis(deg)": 0.005035632524614072,
        "Eccentricity": 0.0,
        "Inclination(deg)": 45.0,
        "Latitude(deg)": 43.637408227026675,
        "Longitude(deg)": 133.16000784494915,
        "Mean Anomaly(deg)": 103.28069578099154,
        "RAAN(deg)": 124.99524651009216,
        "Satellite Name": "Constellation 1 556",
        "Satellite Number": 556,
        "Semi-Major Axis(m)": 7083131.272910544,
        "Time(s)": 84
    },
    {
        "Altitude(m)": 706966.2333805511,
        "Argument of Periapsis(deg)": 0.0050955805308594785,
        "Eccentricity": 0.0,
        "Inclination(deg)": 45.0,
        "Latitude(deg)": 43.62373881280531,
        "Longitude(deg)": 133.23745159269163,
        "Mean Anomaly(deg)": 103.3413969212414,
        "RAAN(deg)": 124.9951899209266,
        "Satellite Name": "Constellation 1 556",
        "Satellite Number": 556,
        "Semi-Major Axis(m)": 7083131.272910544,
        "Time(s)": 85
    },
    {
        "Altitude(m)": 706963.1681662766,
        "Argument of Periapsis(deg)": 0.005155528537104883,
        "Eccentricity": 0.0,
        "Inclination(deg)": 45.0,
        "Latitude(deg)": 43.610011237802276,
        "Longitude(deg)": 133.31485833959013,
        "Mean Anomaly(deg)": 103.40209806149132,
        "RAAN(deg)": 124.99513333176104,
        "Satellite Name": "Constellation 1 556",
        "Satellite Number": 556,
        "Semi-Major Axis(m)": 7083131.272910544,
        "Time(s)": 86
    },
    {
        "Altitude(m)": 706960.0903545386,
        "Argument of Periapsis(deg)": 0.0052154765433502885,
        "Eccentricity": 0.0,
        "Inclination(deg)": 45.0,
        "Latitude(deg)": 43.596225555807116,
        "Longitude(deg)": 133.39222796338868,
        "Mean Anomaly(deg)": 103.4627992017412,
        "RAAN(deg)": 124.99507674259546,
        "Satellite Name": "Constellation 1 556",
        "Satellite Number": 556,
        "Semi-Major Axis(m)": 7083131.272910544,
        "Time(s)": 87
    },
    {
        "Altitude(m)": 706956.9999635405,
        "Argument of Periapsis(deg)": 0.005275424549595694,
        "Eccentricity": 0.0,
        "Inclination(deg)": 45.0,
        "Latitude(deg)": 43.58238182077461,
        "Longitude(deg)": 133.46956034237783,
        "Mean Anomaly(deg)": 103.52350034199112,
        "RAAN(deg)": 124.99502015342989,
        "Satellite Name": "Constellation 1 556",
        "Satellite Number": 556,
        "Semi-Major Axis(m)": 7083131.272910544,
        "Time(s)": 88
    },
    {
        "Altitude(m)": 706953.8970115582,
        "Argument of Periapsis(deg)": 0.0053353725558411,
        "Eccentricity": 0.0,
        "Inclination(deg)": 45.0,
        "Latitude(deg)": 43.56848008682406,
        "Longitude(deg)": 133.54685518729767,
        "Mean Anomaly(deg)": 103.58420148224101,
        "RAAN(deg)": 124.99496356426434,
        "Satellite Name": "Constellation 1 556",
        "Satellite Number": 556,
        "Semi-Major Axis(m)": 7083131.272910544,
        "Time(s)": 89
    },
    {
        "Altitude(m)": 706950.7815169488,
        "Argument of Periapsis(deg)": 0.005395320562086505,
        "Eccentricity": 0.0,
        "Inclination(deg)": 45.0,
        "Latitude(deg)": 43.55452040823762,
        "Longitude(deg)": 133.62411271372804,
        "Mean Anomaly(deg)": 103.64490262249089,
        "RAAN(deg)": 124.99490697509874,
        "Satellite Name": "Constellation 1 556",
        "Satellite Number": 556,
        "Semi-Major Axis(m)": 7083131.272910544,
        "Time(s)": 90
    },
    {
        "Altitude(m)": 706947.6534981376,
        "Argument of Periapsis(deg)": 0.00545526856833191,
        "Eccentricity": 0.0,
        "Inclination(deg)": 45.0,
        "Latitude(deg)": 43.54050283946051,
        "Longitude(deg)": 133.7013326335054,
        "Mean Anomaly(deg)": 103.7056037627408,
        "RAAN(deg)": 124.99485038593319,
        "Satellite Name": "Constellation 1 556",
        "Satellite Number": 556,
        "Semi-Major Axis(m)": 7083131.272910544,
        "Time(s)": 91
    },
    {
        "Altitude(m)": 706944.5129736318,
        "Argument of Periapsis(deg)": 0.005515216574577317,
        "Eccentricity": 0.0,
        "Inclination(deg)": 45.0,
        "Latitude(deg)": 43.52642743509936,
        "Longitude(deg)": 133.7785148271128,
        "Mean Anomaly(deg)": 103.76630490299071,
        "RAAN(deg)": 124.99479379676761,
        "Satellite Name": "Constellation 1 556",
        "Satellite Number": 556,
        "Semi-Major Axis(m)": 7083131.272910544,
        "Time(s)": 92
    },
    {
        "Altitude(m)": 706941.3599620078,
        "Argument of Periapsis(deg)": 0.005575164580822722,
        "Eccentricity": 0.0,
        "Inclination(deg)": 45.0,
        "Latitude(deg)": 43.51229424992151,
        "Longitude(deg)": 133.8556591755831,
        "Mean Anomaly(deg)": 103.82700604324063,
        "RAAN(deg)": 124.99473720760204,
        "Satellite Name": "Constellation 1 556",
        "Satellite Number": 556,
        "Semi-Major Axis(m)": 7083131.272910544,
        "Time(s)": 93
    },
    {
        "Altitude(m)": 706938.1944819262,
        "Argument of Periapsis(deg)": 0.005635112587068129,
        "Eccentricity": 0.0,
        "Inclination(deg)": 45.0,
        "Latitude(deg)": 43.49810333885404,
        "Longitude(deg)": 133.9327655605002,
        "Mean Anomaly(deg)": 103.88770718349052,
        "RAAN(deg)": 124.99468061843649,
        "Satellite Name": "Constellation 1 556",
        "Satellite Number": 556,
        "Semi-Major Axis(m)": 7083131.272910544,
        "Time(s)": 94
    }
]